SL-8 R/B                
1 19257U 88053B   26092.66403076  .00000295  00000+0  10394-3 0  9994
2 19257  74.0465  68.2700 0021406 244.3423 288.6433 14.38932407980046
COSMOS 1975             
1 19573U 88093A   26092.42758643  .00009657  00000+0  34711-3 0  9996
2 19573  82.5155  93.8435 0013416  88.5934 271.6843 15.28407510 23039
SL-14 R/B               
1 19574U 88093B   26092.76684191  .00000662  00000+0  73382-4 0  9995
2 19574  82.5344  19.4462 0019697 322.1685  60.5505 14.85685904  4598
SL-16 R/B               
1 19650U 88102B   26092.42631585  .00000173  00000+0  11140-3 0  9993
2 19650  70.9970 101.5515 0015306 326.7216  33.2943 14.16154222930256
INTERCOSMOS 24          
1 20261U 89080A   26092.71177779  .00000485  00000+0  14277-3 0  9991
2 20261  82.6015  88.7562 1186972 237.0150 111.1392 12.59587766669828
SL-14 R/B               
1 20262U 89080C   26092.48113764  .00000525  00000+0  14912-3 0  9991
2 20262  82.5948 157.9198 1230893 130.3962 241.1316 12.50516702663125
DELTA 1 R/B             
1 20323U 89089B   26092.83113462  .00000532  00000+0  13997-3 0  9992
2 20323  97.0686 296.4264 0070238  47.1658 313.5413 14.50684221899236
ARIANE 40 R/B           
1 20443U 90005H   26092.44038304  .00000400  00000+0  14073-3 0  9993
2 20443  98.3034 152.3883 0011185 129.8458 230.3717 14.39886765896222
DELTA 2 R/B(1)          
1 20453U 90008B   26092.85993810  .00113516  00000+0  11929-2 0  9993
2 20453  35.6043  15.8498 0076558 126.0755 234.7102 15.59341362929906
COSMOS 2058             
1 20465U 90010A   26092.87891798  .00008167  00000+0  47959-3 0  9991
2 20465  82.4722  23.5939 0007819 245.0098 115.0321 15.11563160945895
SL-14 R/B               
1 20466U 90010B   26092.42795385  .00000767  00000+0  90027-4 0  9991
2 20466  82.5003 245.0847 0018883 218.3577 141.6297 14.83593072932005
SL-14 R/B               
1 20511U 90018B   26092.53605057  .00000551  00000+0  66144-4 0  9992
2 20511  82.5241 200.8062 0016578  18.5495 341.6320 14.82169070926116
HST                     
1 20580U 90037B   26092.69080411  .00009880  00000+0  32385-3 0  9990
2 20580  28.4721 236.2244 0002065  42.6057 317.4699 15.29872856776991
SL-16 R/B               
1 20625U 90046B   26092.87377815  .00000086  00000+0  68918-4 0  9998
2 20625  70.9985 247.1180 0016511 268.1995  91.7236 14.15018919851812
COSMOS 2084             
1 20663U 90055A   26092.82933543  .00005008  00000+0  35672-3 0  9990
2 20663  62.7895 253.2346 0013199 198.1971 161.8659 15.05798691939952
SL-6 R/B(2)             
1 20666U 90055D   26092.57912282  .00002349  00000+0  18366-3 0  9998
2 20666  62.7832 172.6040 0028720 352.3834   7.6824 15.03712496941781
SL-8 R/B                
1 20775U 90078B   26092.62591019  .00014661  00000+0  43463-3 0  9997
2 20775  82.9037 229.7685 0357706 293.2230  63.1696 14.89767621812867
